[
  {
    "lat": 40.782526, 
    "lng": -73.965307, 
    "landuse": "urban area, park, "
  }, 
  {
    "lat": 40.783482804292824, 
    "lng": -73.96453782949578, 
    "landuse": "urban area, park, "
  }, 
  {
    "lat": 40.78443960858565, 
    "lng": -73.96376865899157, 
    "landuse": "urban area, park, "
  }, 
  {
    "lat": 40.78539641287848, 
    "lng": -73.96299948848736, 
    "landuse": "urban area, park, "
  }, 
  {
    "lat": 40.7863532171713, 
    "lng": -73.96223031798314, 
    "landuse": "urban area, park, "
  }, 
  {
    "lat": 40.78731002146413, 
    "lng": -73.96146114747893, 
    "landuse": "urban area, park, "
  }, 
  {
    "lat": 40.788266825756956, 
    "lng": -73.96069197697472, 
    "landuse": "urban area, park, "
  }, 
  {
    "lat": 40.78922363004978, 
    "lng": -73.9599228064705, 
    "landuse": "urban area, park, "
  }, 
  {
    "lat": 40.79018043434261, 
    "lng": -73.95915363596629, 
    "landuse": "urban area, park, "
  }, 
  {
    "lat": 40.791137238635436, 
    "lng": -73.95838446546207, 
    "landuse": "urban area, park, recreation_ground, "
  }, 
  {
    "lat": 40.795978, 
    "lng": -73.954493, 
    "landuse": "urban area, park, "
  }, 
  {
    "lat": 40.79550193101061, 
    "lng": -73.95324932009783, 
    "landuse": "urban area, park, "
  }, 
  {
    "lat": 40.79502586202123, 
    "lng": -73.95200564019565, 
    "landuse": "urban area, park, "
  }, 
  {
    "lat": 40.79454979303184, 
    "lng": -73.95076196029348, 
    "landuse": "urban area, "
  }, 
  {
    "lat": 40.794073724042455, 
    "lng": -73.9495182803913, 
    "landuse": "urban area, "
  }, 
  {
    "lat": 40.79359765505307, 
    "lng": -73.94827460048913, 
    "landuse": "urban area, "
  }, 
  {
    "lat": 40.793121586063684, 
    "lng": -73.94703092058695, 
    "landuse": "urban area, "
  }, 
  {
    "lat": 40.7926455170743, 
    "lng": -73.94578724068478, 
    "landuse": "urban area, "
  }, 
  {
    "lat": 40.79216944808491, 
    "lng": -73.9445435607826, 
    "landuse": "urban area, "
  }, 
  {
    "lat": 40.79169337909553, 
    "lng": -73.94329988088043, 
    "landuse": "urban area, residential, "
  }, 
  {
    "lat": 40.78983, 
    "lng": -73.938432, 
    "landuse": ""
  }, 
  {
    "lat": 40.78967814258815, 
    "lng": -73.93835809107247, 
    "landuse": ""
  }, 
  {
    "lat": 40.7895262851763, 
    "lng": -73.93828418214494, 
    "landuse": ""
  }, 
  {
    "lat": 40.78937442776445, 
    "lng": -73.93821027321741, 
    "landuse": ""
  }, 
  {
    "lat": 40.7892225703526, 
    "lng": -73.93813636428987, 
    "landuse": ""
  }, 
  {
    "lat": 40.788815, 
    "lng": -73.937938, 
    "landuse": ""
  }, 
  {
    "lat": 40.78823869243785, 
    "lng": -73.93809778452146, 
    "landuse": ""
  }, 
  {
    "lat": 40.7876623848757, 
    "lng": -73.93825756904292, 
    "landuse": ""
  }, 
  {
    "lat": 40.786687, 
    "lng": -73.938528, 
    "landuse": ""
  }, 
  {
    "lat": 40.78651059953298, 
    "lng": -73.93805121673904, 
    "landuse": ""
  }, 
  {
    "lat": 40.78633419906596, 
    "lng": -73.93757443347808, 
    "landuse": ""
  }, 
  {
    "lat": 40.78615779859894, 
    "lng": -73.93709765021711, 
    "landuse": ""
  }, 
  {
    "lat": 40.78598139813192, 
    "lng": -73.93662086695615, 
    "landuse": ""
  }, 
  {
    "lat": 40.785804997664904, 
    "lng": -73.93614408369518, 
    "landuse": ""
  }, 
  {
    "lat": 40.785628597197885, 
    "lng": -73.93566730043422, 
    "landuse": ""
  }, 
  {
    "lat": 40.785452196730866, 
    "lng": -73.93519051717325, 
    "landuse": "park, "
  }, 
  {
    "lat": 40.785275796263846, 
    "lng": -73.93471373391229, 
    "landuse": "park, "
  }, 
  {
    "lat": 40.78509939579683, 
    "lng": -73.93423695065133, 
    "landuse": "park, "
  }, 
  {
    "lat": 40.78492299532981, 
    "lng": -73.93376016739036, 
    "landuse": "park, "
  }, 
  {
    "lat": 40.78474659486279, 
    "lng": -73.9332833841294, 
    "landuse": "park, "
  }, 
  {
    "lat": 40.78457019439577, 
    "lng": -73.93280660086843, 
    "landuse": "park, "
  }, 
  {
    "lat": 40.78439379392875, 
    "lng": -73.93232981760747, 
    "landuse": "park, "
  }, 
  {
    "lat": 40.78421739346173, 
    "lng": -73.9318530343465, 
    "landuse": "park, "
  }, 
  {
    "lat": 40.78404099299471, 
    "lng": -73.93137625108554, 
    "landuse": "park, "
  }, 
  {
    "lat": 40.78386459252769, 
    "lng": -73.93089946782457, 
    "landuse": "park, "
  }, 
  {
    "lat": 40.78368819206067, 
    "lng": -73.93042268456361, 
    "landuse": "park, "
  }, 
  {
    "lat": 40.783511791593654, 
    "lng": -73.92994590130264, 
    "landuse": "park, "
  }, 
  {
    "lat": 40.783335391126634, 
    "lng": -73.92946911804168, 
    "landuse": "park, "
  }
]